TIANWANG 1C (TW-1C)     
1 40926U 15051B   17132.58400774  .00005430  00000-0  12845-3 0  9997
2 40926  97.2326 172.4269 0010074 304.3773 159.4253 15.42180927 91437
TIANWANG 1B (TW-1B)     
1 40927U 15051C   17132.43603227  .00005433  00000-0  13322-3 0  9994
2 40927  97.2426 172.3130 0009925 316.1346 158.1505 15.41089190 91362
TIANWANG 1A (TW-1A)     
1 40928U 15051D   17132.39356966  .00002787  00000-0  82023-4 0  9999
2 40928  97.2304 168.8520 0011807 335.4999 151.6279 15.35847248 91209
LAPAN-A2 (IO-86)        
1 40931U 15052B   17132.44472667  .00000713  00000-0  10310-4 0  9994
2 40931   5.9995 127.5870 0012959  96.0214 264.1420 14.76527363 87675
LQSAT                   
1 40958U 15057A   17132.51615216  .00000025  00000-0  11650-4 0  9999
2 40958  97.9794 208.4557 0018036 175.9710 184.1652 14.72961736 85862
CHUBUSAT-2              
1 41338U 16012B   17131.94586906  .00000355  00000-0  21260-4 0  9997
2 41338  31.0044 342.4274 0013786  60.4693 299.7316 14.99719926 67548
CHUBUSAT-3              
1 41339U 16012C   17131.94561172  .00000320  00000-0  18339-4 0  9991
2 41339  31.0128 341.6303 0013513  66.7522 293.4536 14.99927084 67523
OUFTI-1                 
1 41458U 16025C   17132.63011751  .00002189  00000-0  12037-3 0  9990
2 41458  98.1908 168.1657 0175815  48.9809 312.6464 15.03026639 57247
E-ST@R-II               
1 41459U 16025D   17132.58086823  .00002596  00000-0  14237-3 0  9993
2 41459  98.1879 168.0735 0176062  49.1658 312.4674 15.02871981 57227
AAUSAT 4                
1 41460U 16025E   17132.59864280  .00002024  00000-0  11207-3 0  9997
2 41460  98.1811 168.1772 0169499  47.7889 313.7600 15.03705863 57244
NUSAT 1 (LO-87)         
1 41557U 16033B   17132.16850399  .00001265  00000-0  50558-4 0  9991
2 41557  97.4641 211.6863 0015702 130.8511 229.4092 15.26915711 52931
BEESAT-4                
1 41619U 16040W   17132.32917598  .00001294  00000-0  62129-4 0  9990
2 41619  97.4653 195.0596 0012021 185.6014 174.5089 15.20607319 37146
PRATHAM                 
1 41783U 16059A   17132.59222086  .00000054  00000-0  20119-4 0  9998
2 41783  98.1698 194.3277 0032255 272.4961  87.2548 14.62830077 33397
ALSAT 1N                
1 41789U 16059G   17132.40513362  .00000093  00000-0  26975-4 0  9993
2 41789  98.1700 194.5743 0026962 267.1574  92.6543 14.64038453 33379
NAYIF-1 (EO-88)         
1 42017U 17008BX  17132.55896738  .00001328  00000-0  59793-4 0  9996
2 42017  97.4981 194.0810 0006318   1.6117 358.5139 15.22829947 13064
